CCSDS_OMM_VERS = 2.0
CREATION_DATE  = 
ORIGINATOR     = 

OBJECT_NAME    = STARLINK-36492
OBJECT_ID      = 2026-002AD
CENTER_NAME    = EARTH
REF_FRAME      = TEME
TIME_SYSTEM    = UTC
MEAN_ELEMENT_THEORY = SGP/SGP4

EPOCH          = 2026-01-25T12:00:01.999296
MEAN_MOTION    = 15.66996649
ECCENTRICITY   = .0001767
INCLINATION    = 42.9993
RA_OF_ASC_NODE = 211.8048
ARG_OF_PERICENTER = 266.8562
MEAN_ANOMALY   = 84.2449

EPHEMERIS_TYPE = 0
CLASSIFICATION_TYPE = U
NORAD_CAT_ID   = 67332
ELEMENT_SET_NO = 999
REV_AT_EPOCH   = 463
BSTAR          = -.21172E-1
MEAN_MOTION_DOT = -.2035889E-1
MEAN_MOTION_DDOT = 0

CCSDS_OMM_VERS = 2.0
CREATION_DATE  = 
ORIGINATOR     = 

OBJECT_NAME    = STARLINK-36427
OBJECT_ID      = 2026-002AE
CENTER_NAME    = EARTH
REF_FRAME      = TEME
TIME_SYSTEM    = UTC
MEAN_ELEMENT_THEORY = SGP/SGP4

EPOCH          = 2026-01-25T12:00:01.999296
MEAN_MOTION    = 15.54971364
ECCENTRICITY   = .0001366
INCLINATION    = 42.9994
RA_OF_ASC_NODE = 211.5036
ARG_OF_PERICENTER = 272.5058
MEAN_ANOMALY   = 193.8606

EPHEMERIS_TYPE = 0
CLASSIFICATION_TYPE = U
NORAD_CAT_ID   = 67333
ELEMENT_SET_NO = 999
REV_AT_EPOCH   = 453
BSTAR          = -.3309E-1
MEAN_MOTION_DOT = -.2032191E-1
MEAN_MOTION_DDOT = 0

CCSDS_OMM_VERS = 2.0
CREATION_DATE  = 
ORIGINATOR     = 

OBJECT_NAME    = STARLINK-35343
OBJECT_ID      = 2026-003A
CENTER_NAME    = EARTH
REF_FRAME      = TEME
TIME_SYSTEM    = UTC
MEAN_ELEMENT_THEORY = SGP/SGP4

EPOCH          = 2026-01-25T12:00:01.999296
MEAN_MOTION    = 15.75061299
ECCENTRICITY   = .0001503
INCLINATION    = 42.9987
RA_OF_ASC_NODE = 115.0443
ARG_OF_PERICENTER = 263.8574
MEAN_ANOMALY   = 39.6313

EPHEMERIS_TYPE = 0
CLASSIFICATION_TYPE = U
NORAD_CAT_ID   = 67334
ELEMENT_SET_NO = 999
REV_AT_EPOCH   = 367
BSTAR          = -.60094E-4
MEAN_MOTION_DOT = -.9707E-4
MEAN_MOTION_DDOT = 0

CCSDS_OMM_VERS = 2.0
CREATION_DATE  = 
ORIGINATOR     = 

OBJECT_NAME    = STARLINK-36486
OBJECT_ID      = 2026-003B
CENTER_NAME    = EARTH
REF_FRAME      = TEME
TIME_SYSTEM    = UTC
MEAN_ELEMENT_THEORY = SGP/SGP4

EPOCH          = 2026-01-25T12:00:01.999296
MEAN_MOTION    = 15.75037084
ECCENTRICITY   = .0001436
INCLINATION    = 42.9986
RA_OF_ASC_NODE = 115.0394
ARG_OF_PERICENTER = 274.6212
MEAN_ANOMALY   = 30.7889

EPHEMERIS_TYPE = 0
CLASSIFICATION_TYPE = U
NORAD_CAT_ID   = 67335
ELEMENT_SET_NO = 999
REV_AT_EPOCH   = 373
BSTAR          = .36704E-4
MEAN_MOTION_DOT = .5164E-4
MEAN_MOTION_DDOT = 0

CCSDS_OMM_VERS = 2.0
CREATION_DATE  = 
ORIGINATOR     = 

OBJECT_NAME    = STARLINK-36480
OBJECT_ID      = 2026-003C
CENTER_NAME    = EARTH
REF_FRAME      = TEME
TIME_SYSTEM    = UTC
MEAN_ELEMENT_THEORY = SGP/SGP4

EPOCH          = 2026-01-25T12:00:01.999296
MEAN_MOTION    = 15.75008710
ECCENTRICITY   = .0001595
INCLINATION    = 42.9987
RA_OF_ASC_NODE = 115.0352
ARG_OF_PERICENTER = 281.1659
MEAN_ANOMALY   = 26.1679

EPHEMERIS_TYPE = 0
CLASSIFICATION_TYPE = U
NORAD_CAT_ID   = 67336
ELEMENT_SET_NO = 999
REV_AT_EPOCH   = 373
BSTAR          = .55042E-3
MEAN_MOTION_DOT = .84814E-3
MEAN_MOTION_DDOT = 0

CCSDS_OMM_VERS = 2.0
CREATION_DATE  = 
ORIGINATOR     = 

OBJECT_NAME    = STARLINK-36410
OBJECT_ID      = 2026-003D
CENTER_NAME    = EARTH
REF_FRAME      = TEME
TIME_SYSTEM    = UTC
MEAN_ELEMENT_THEORY = SGP/SGP4

EPOCH          = 2026-01-25T12:00:01.999296
MEAN_MOTION    = 15.75004968
ECCENTRICITY   = .000139
INCLINATION    = 42.9988
RA_OF_ASC_NODE = 115.0303
ARG_OF_PERICENTER = 270.4437
MEAN_ANOMALY   = 38.8139

EPHEMERIS_TYPE = 0
CLASSIFICATION_TYPE = U
NORAD_CAT_ID   = 67337
ELEMENT_SET_NO = 999
REV_AT_EPOCH   = 373
BSTAR          = .52414E-3
MEAN_MOTION_DOT = .80687E-3
MEAN_MOTION_DDOT = 0

CCSDS_OMM_VERS = 2.0
CREATION_DATE  = 
ORIGINATOR     = 

OBJECT_NAME    = STARLINK-36413
OBJECT_ID      = 2026-003E
CENTER_NAME    = EARTH
REF_FRAME      = TEME
TIME_SYSTEM    = UTC
MEAN_ELEMENT_THEORY = SGP/SGP4

EPOCH          = 2026-01-25T12:00:01.999296
MEAN_MOTION    = 15.75011315
ECCENTRICITY   = .0001609
INCLINATION    = 42.9988
RA_OF_ASC_NODE = 115.0251
ARG_OF_PERICENTER = 262.1038
MEAN_ANOMALY   = 49.0686

EPHEMERIS_TYPE = 0
CLASSIFICATION_TYPE = U
NORAD_CAT_ID   = 67338
ELEMENT_SET_NO = 999
REV_AT_EPOCH   = 373
BSTAR          = .51975E-3
MEAN_MOTION_DOT = .80023E-3
MEAN_MOTION_DDOT = 0

CCSDS_OMM_VERS = 2.0
CREATION_DATE  = 
ORIGINATOR     = 

OBJECT_NAME    = STARLINK-36451
OBJECT_ID      = 2026-003F
CENTER_NAME    = EARTH
REF_FRAME      = TEME
TIME_SYSTEM    = UTC
MEAN_ELEMENT_THEORY = SGP/SGP4

EPOCH          = 2026-01-25T12:00:01.999296
MEAN_MOTION    = 15.75023724
ECCENTRICITY   = .0001382
INCLINATION    = 42.9986
RA_OF_ASC_NODE = 115.0203
ARG_OF_PERICENTER = 264.2319
MEAN_ANOMALY   = 48.8521

EPHEMERIS_TYPE = 0
CLASSIFICATION_TYPE = U
NORAD_CAT_ID   = 67339
ELEMENT_SET_NO = 999
REV_AT_EPOCH   = 373
BSTAR          = .18948E-3
MEAN_MOTION_DOT = .28708E-3
MEAN_MOTION_DDOT = 0

CCSDS_OMM_VERS = 2.0
CREATION_DATE  = 
ORIGINATOR     = 

OBJECT_NAME    = STARLINK-36339
OBJECT_ID      = 2026-003G
CENTER_NAME    = EARTH
REF_FRAME      = TEME
TIME_SYSTEM    = UTC
MEAN_ELEMENT_THEORY = SGP/SGP4

EPOCH          = 2026-01-25T12:00:01.999296
MEAN_MOTION    = 15.75039828
ECCENTRICITY   = .0001606
INCLINATION    = 42.9986
RA_OF_ASC_NODE = 115.0157
ARG_OF_PERICENTER = 261.5954
MEAN_ANOMALY   = 53.4069

EPHEMERIS_TYPE = 0
CLASSIFICATION_TYPE = U
NORAD_CAT_ID   = 67340
ELEMENT_SET_NO = 999
REV_AT_EPOCH   = 373
BSTAR          = .55191E-4
MEAN_MOTION_DOT = .8009E-4
MEAN_MOTION_DDOT = 0

CCSDS_OMM_VERS = 2.0
CREATION_DATE  = 
ORIGINATOR     = 

OBJECT_NAME    = STARLINK-36453
OBJECT_ID      = 2026-003H
CENTER_NAME    = EARTH
REF_FRAME      = TEME
TIME_SYSTEM    = UTC
MEAN_ELEMENT_THEORY = SGP/SGP4

EPOCH          = 2026-01-25T12:00:01.999296
MEAN_MOTION    = 15.75012951
ECCENTRICITY   = .000126
INCLINATION    = 42.9989
RA_OF_ASC_NODE = 115.0103
ARG_OF_PERICENTER = 275.5534
MEAN_ANOMALY   = 41.3775

EPHEMERIS_TYPE = 0
CLASSIFICATION_TYPE = U
NORAD_CAT_ID   = 67341
ELEMENT_SET_NO = 999
REV_AT_EPOCH   = 373
BSTAR          = .24084E-3
MEAN_MOTION_DOT = .36635E-3
MEAN_MOTION_DDOT = 0

CCSDS_OMM_VERS = 2.0
CREATION_DATE  = 
ORIGINATOR     = 

OBJECT_NAME    = STARLINK-36432
OBJECT_ID      = 2026-003J
CENTER_NAME    = EARTH
REF_FRAME      = TEME
TIME_SYSTEM    = UTC
MEAN_ELEMENT_THEORY = SGP/SGP4

EPOCH          = 2026-01-25T12:00:01.999296
MEAN_MOTION    = 15.75005889
ECCENTRICITY   = .0001696
INCLINATION    = 42.9987
RA_OF_ASC_NODE = 115.0055
ARG_OF_PERICENTER = 260.2360
MEAN_ANOMALY   = 58.6003

EPHEMERIS_TYPE = 0
CLASSIFICATION_TYPE = U
NORAD_CAT_ID   = 67342
ELEMENT_SET_NO = 999
REV_AT_EPOCH   = 372
BSTAR          = .66674E-3
MEAN_MOTION_DOT = .10305E-2
MEAN_MOTION_DDOT = 0

CCSDS_OMM_VERS = 2.0
CREATION_DATE  = 
ORIGINATOR     = 

OBJECT_NAME    = STARLINK-36458
OBJECT_ID      = 2026-003K
CENTER_NAME    = EARTH
REF_FRAME      = TEME
TIME_SYSTEM    = UTC
MEAN_ELEMENT_THEORY = SGP/SGP4

EPOCH          = 2026-01-25T12:00:01.999296
MEAN_MOTION    = 15.75027217
ECCENTRICITY   = .0001548
INCLINATION    = 42.9988
RA_OF_ASC_NODE = 115.0011
ARG_OF_PERICENTER = 251.5509
MEAN_ANOMALY   = 69.1991

EPHEMERIS_TYPE = 0
CLASSIFICATION_TYPE = U
NORAD_CAT_ID   = 67343
ELEMENT_SET_NO = 999
REV_AT_EPOCH   = 373
BSTAR          = .14559E-3
MEAN_MOTION_DOT = .21933E-3
MEAN_MOTION_DDOT = 0

