STARLINK-36492          
1 67332U 26002AD  26025.50002314 -.02035889  00000+0 -21172-1 0  9991
2 67332  42.9993 211.8048 0001767 266.8562  84.2449 15.66996649  4634
STARLINK-36427          
1 67333U 26002AE  26025.50002314 -.02032191  00000+0 -33090-1 0  9997
2 67333  42.9994 211.5036 0001366 272.5058 193.8606 15.54971364  4534
STARLINK-35343          
1 67334U 26003A   26025.50002314 -.00009707  00000+0 -60094-4 0  9991
2 67334  42.9987 115.0443 0001503 263.8574  39.6313 15.75061299  3672
STARLINK-36486          
1 67335U 26003B   26025.50002314  .00005164  00000+0  36704-4 0  9994
2 67335  42.9986 115.0394 0001436 274.6212  30.7889 15.75037084  3733
STARLINK-36480          
1 67336U 26003C   26025.50002314  .00084814  00000+0  55042-3 0  9999
2 67336  42.9987 115.0352 0001595 281.1659  26.1679 15.75008710  3733
STARLINK-36410          
1 67337U 26003D   26025.50002314  .00080687  00000+0  52414-3 0  9994
2 67337  42.9988 115.0303 0001390 270.4437  38.8139 15.75004968  3731
STARLINK-36413          
1 67338U 26003E   26025.50002314  .00080023  00000+0  51975-3 0  9990
2 67338  42.9988 115.0251 0001609 262.1038  49.0686 15.75011315  3737
STARLINK-36451          
1 67339U 26003F   26025.50002314  .00028708  00000+0  18948-3 0  9996
2 67339  42.9986 115.0203 0001382 264.2319  48.8521 15.75023724  3738
STARLINK-36339          
1 67340U 26003G   26025.50002314  .00008009  00000+0  55191-4 0  9992
2 67340  42.9986 115.0157 0001606 261.5954  53.4069 15.75039828  3733
STARLINK-36453          
1 67341U 26003H   26025.50002314  .00036635  00000+0  24084-3 0  9995
2 67341  42.9989 115.0103 0001260 275.5534  41.3775 15.75012951  3731
STARLINK-36432          
1 67342U 26003J   26025.50002314  .00103050  00000+0  66674-3 0  9993
2 67342  42.9987 115.0055 0001696 260.2360  58.6003 15.75005889  3723
STARLINK-36458          
1 67343U 26003K   26025.50002314  .00021933  00000+0  14559-3 0  9998
2 67343  42.9988 115.0011 0001548 251.5509  69.1991 15.75027217  3734
